{"fetched_at":"2026-07-09T18:17:07.615Z","source":"https://celestrak.org/NORAD/elements/gp.php?NAME=ICEYE&FORMAT=JSON","constellation":"iceye","records":[{"OBJECT_NAME":"ICEYE-X40","OBJECT_ID":"2024-149CK","EPOCH":"2026-07-08T17:52:26.933952","CLASSIFICATION_TYPE":"U","MEAN_MOTION":14.98038659,"ECCENTRICITY":0.0004537,"INCLINATION":97.6798,"RA_OF_ASC_NODE":265.8931,"ARG_OF_PERICENTER":21.2237,"MEAN_ANOMALY":338.9173,"EPHEMERIS_TYPE":0,"NORAD_CAT_ID":60549,"ELEMENT_SET_NO":999,"REV_AT_EPOCH":10330,"BSTAR":0.00012388875,"MEAN_MOTION_DOT":0.00001406,"MEAN_MOTION_DDOT":0},{"OBJECT_NAME":"ICEYE-X49","OBJECT_ID":"2024-247H","EPOCH":"2026-07-08T14:56:23.803872","CLASSIFICATION_TYPE":"U","MEAN_MOTION":15.13589709,"ECCENTRICITY":0.00011315,"INCLINATION":44.997,"RA_OF_ASC_NODE":242.9077,"ARG_OF_PERICENTER":233.5155,"MEAN_ANOMALY":126.5619,"EPHEMERIS_TYPE":0,"NORAD_CAT_ID":62384,"ELEMENT_SET_NO":999,"REV_AT_EPOCH":8542,"BSTAR":0.00016523466,"MEAN_MOTION_DOT":0.00002759,"MEAN_MOTION_DDOT":0},{"OBJECT_NAME":"ICEYE-X47","OBJECT_ID":"2024-247N","EPOCH":"2026-07-08T14:21:01.653984","CLASSIFICATION_TYPE":"U","MEAN_MOTION":15.13467379,"ECCENTRICITY":0.00020671,"INCLINATION":44.9953,"RA_OF_ASC_NODE":242.6285,"ARG_OF_PERICENTER":318.2676,"MEAN_ANOMALY":41.8043,"EPHEMERIS_TYPE":0,"NORAD_CAT_ID":62389,"ELEMENT_SET_NO":999,"REV_AT_EPOCH":8542,"BSTAR":0.00011661193,"MEAN_MOTION_DOT":0.00001864,"MEAN_MOTION_DDOT":0},{"OBJECT_NAME":"ICEYE-X42","OBJECT_ID":"2025-009CT","EPOCH":"2026-07-08T16:05:01.912128","CLASSIFICATION_TYPE":"U","MEAN_MOTION":14.91842127,"ECCENTRICITY":0.00021538,"INCLINATION":97.7409,"RA_OF_ASC_NODE":267.5954,"ARG_OF_PERICENTER":58.4776,"MEAN_ANOMALY":301.6653,"EPHEMERIS_TYPE":0,"NORAD_CAT_ID":62698,"ELEMENT_SET_NO":999,"REV_AT_EPOCH":8049,"BSTAR":0.00010223559,"MEAN_MOTION_DOT":0.00000977,"MEAN_MOTION_DDOT":0},{"OBJECT_NAME":"ICEYE-X41","OBJECT_ID":"2025-009CV","EPOCH":"2026-07-08T19:06:47.740896","CLASSIFICATION_TYPE":"U","MEAN_MOTION":14.96893112,"ECCENTRICITY":0.00008436,"INCLINATION":97.7066,"RA_OF_ASC_NODE":269.0094,"ARG_OF_PERICENTER":9.9751,"MEAN_ANOMALY":350.1487,"EPHEMERIS_TYPE":0,"NORAD_CAT_ID":62700,"ELEMENT_SET_NO":999,"REV_AT_EPOCH":8064,"BSTAR":0.00011790623,"MEAN_MOTION_DOT":0.00001295,"MEAN_MOTION_DDOT":0},{"OBJECT_NAME":"ICEYE-X45","OBJECT_ID":"2025-009DA","EPOCH":"2026-07-08T19:08:25.994112","CLASSIFICATION_TYPE":"U","MEAN_MOTION":15.00831357,"ECCENTRICITY":0.00013393,"INCLINATION":97.8396,"RA_OF_ASC_NODE":276.6586,"ARG_OF_PERICENTER":79.6955,"MEAN_ANOMALY":280.4419,"EPHEMERIS_TYPE":0,"NORAD_CAT_ID":62705,"ELEMENT_SET_NO":999,"REV_AT_EPOCH":8092,"BSTAR":0.00030096541,"MEAN_MOTION_DOT":0.00003763,"MEAN_MOTION_DDOT":0},{"OBJECT_NAME":"ICEYE-X44","OBJECT_ID":"2025-009DC","EPOCH":"2026-07-08T18:07:53.111712","CLASSIFICATION_TYPE":"U","MEAN_MOTION":14.9614086,"ECCENTRICITY":0.00025143,"INCLINATION":97.7046,"RA_OF_ASC_NODE":268.5409,"ARG_OF_PERICENTER":83.8125,"MEAN_ANOMALY":276.3383,"EPHEMERIS_TYPE":0,"NORAD_CAT_ID":62707,"ELEMENT_SET_NO":999,"REV_AT_EPOCH":10316,"BSTAR":0.00018848943,"MEAN_MOTION_DOT":0.00002064,"MEAN_MOTION_DDOT":0},{"OBJECT_NAME":"ICEYE-X48","OBJECT_ID":"2025-052AV","EPOCH":"2026-07-08T16:45:21.503520","CLASSIFICATION_TYPE":"U","MEAN_MOTION":14.98103104,"ECCENTRICITY":0.00032705,"INCLINATION":97.6841,"RA_OF_ASC_NODE":81.5559,"ARG_OF_PERICENTER":119.78,"MEAN_ANOMALY":240.3748,"EPHEMERIS_TYPE":0,"NORAD_CAT_ID":63253,"ELEMENT_SET_NO":999,"REV_AT_EPOCH":7189,"BSTAR":0.00015555836,"MEAN_MOTION_DOT":0.00001783,"MEAN_MOTION_DDOT":0},{"OBJECT_NAME":"ICEYE-X50","OBJECT_ID":"2025-052AX","EPOCH":"2026-07-08T23:20:51.592704","CLASSIFICATION_TYPE":"U","MEAN_MOTION":14.95349485,"ECCENTRICITY":0.00032065,"INCLINATION":97.6866,"RA_OF_ASC_NODE":81.4477,"ARG_OF_PERICENTER":115.0311,"MEAN_ANOMALY":245.1243,"EPHEMERIS_TYPE":0,"NORAD_CAT_ID":63255,"ELEMENT_SET_NO":999,"REV_AT_EPOCH":7190,"BSTAR":0.00013748666,"MEAN_MOTION_DOT":0.0000146,"MEAN_MOTION_DDOT":0},{"OBJECT_NAME":"ICEYE-X51","OBJECT_ID":"2025-052AZ","EPOCH":"2026-07-08T22:12:24.126336","CLASSIFICATION_TYPE":"U","MEAN_MOTION":15.00876473,"ECCENTRICITY":0.00020234,"INCLINATION":97.7601,"RA_OF_ASC_NODE":84.9802,"ARG_OF_PERICENTER":68.0786,"MEAN_ANOMALY":292.0652,"EPHEMERIS_TYPE":0,"NORAD_CAT_ID":63257,"ELEMENT_SET_NO":999,"REV_AT_EPOCH":7206,"BSTAR":0.00020405827,"MEAN_MOTION_DOT":0.00002536,"MEAN_MOTION_DDOT":0},{"OBJECT_NAME":"ICEYE-X46","OBJECT_ID":"2025-052BA","EPOCH":"2026-07-08T15:14:21.437376","CLASSIFICATION_TYPE":"U","MEAN_MOTION":14.95348711,"ECCENTRICITY":0.00015869,"INCLINATION":97.6866,"RA_OF_ASC_NODE":81.1151,"ARG_OF_PERICENTER":84.7383,"MEAN_ANOMALY":275.4019,"EPHEMERIS_TYPE":0,"NORAD_CAT_ID":63258,"ELEMENT_SET_NO":999,"REV_AT_EPOCH":7185,"BSTAR":0.00015362614,"MEAN_MOTION_DOT":0.00001638,"MEAN_MOTION_DDOT":0},{"OBJECT_NAME":"ICEYE-X54","OBJECT_ID":"2025-135AU","EPOCH":"2026-07-08T21:59:47.284800","CLASSIFICATION_TYPE":"U","MEAN_MOTION":14.94707536,"ECCENTRICITY":0.00015716,"INCLINATION":97.774,"RA_OF_ASC_NODE":304.1307,"ARG_OF_PERICENTER":206.6368,"MEAN_ANOMALY":153.4772,"EPHEMERIS_TYPE":0,"NORAD_CAT_ID":64570,"ELEMENT_SET_NO":999,"REV_AT_EPOCH":5714,"BSTAR":0.00019616015,"MEAN_MOTION_DOT":0.00002071,"MEAN_MOTION_DDOT":0},{"OBJECT_NAME":"ICEYE-X52","OBJECT_ID":"2025-135AW","EPOCH":"2026-07-08T21:50:11.819328","CLASSIFICATION_TYPE":"U","MEAN_MOTION":14.93636733,"ECCENTRICITY":0.00007278,"INCLINATION":97.7764,"RA_OF_ASC_NODE":303.9221,"ARG_OF_PERICENTER":220.6617,"MEAN_ANOMALY":139.4549,"EPHEMERIS_TYPE":0,"NORAD_CAT_ID":64572,"ELEMENT_SET_NO":999,"REV_AT_EPOCH":5712,"BSTAR":0.00011557947,"MEAN_MOTION_DOT":0.00001164,"MEAN_MOTION_DDOT":0},{"OBJECT_NAME":"ICEYE-X56","OBJECT_ID":"2025-135AY","EPOCH":"2026-07-08T23:24:13.717728","CLASSIFICATION_TYPE":"U","MEAN_MOTION":14.95738149,"ECCENTRICITY":0.00009915,"INCLINATION":97.7754,"RA_OF_ASC_NODE":304.7655,"ARG_OF_PERICENTER":233.8209,"MEAN_ANOMALY":126.292,"EPHEMERIS_TYPE":0,"NORAD_CAT_ID":64574,"ELEMENT_SET_NO":999,"REV_AT_EPOCH":5718,"BSTAR":0.00017061373,"MEAN_MOTION_DOT":0.00001843,"MEAN_MOTION_DDOT":0},{"OBJECT_NAME":"ICEYE-X57","OBJECT_ID":"2025-135BC","EPOCH":"2026-07-08T22:25:25.774176","CLASSIFICATION_TYPE":"U","MEAN_MOTION":15.00849144,"ECCENTRICITY":0.0002066,"INCLINATION":97.8001,"RA_OF_ASC_NODE":306.4663,"ARG_OF_PERICENTER":61.9775,"MEAN_ANOMALY":298.1658,"EPHEMERIS_TYPE":0,"NORAD_CAT_ID":64578,"ELEMENT_SET_NO":999,"REV_AT_EPOCH":5728,"BSTAR":0.00023540908,"MEAN_MOTION_DOT":0.00002932,"MEAN_MOTION_DDOT":0},{"OBJECT_NAME":"ICEYE-X55","OBJECT_ID":"2025-135BF","EPOCH":"2026-07-08T21:56:13.166592","CLASSIFICATION_TYPE":"U","MEAN_MOTION":14.95336167,"ECCENTRICITY":0.00018816,"INCLINATION":97.7752,"RA_OF_ASC_NODE":304.5344,"ARG_OF_PERICENTER":269.9167,"MEAN_ANOMALY":90.1838,"EPHEMERIS_TYPE":0,"NORAD_CAT_ID":64581,"ELEMENT_SET_NO":999,"REV_AT_EPOCH":5716,"BSTAR":0.00017140767,"MEAN_MOTION_DOT":0.00001832,"MEAN_MOTION_DDOT":0}]}
