ICEYE-X40               
1 60549U 24149CK  26189.74475618  .00001406  00000+0  12389-3 0  9998
2 60549  97.6798 265.8931 0004537  21.2237 338.9173 14.98038659103306
ICEYE-X49               
1 62384U 24247H   26189.62249773  .00002759  00000+0  16523-3 0  9990
2 62384  44.9970 242.9077 0001131 233.5155 126.5619 15.13589709 85426
ICEYE-X47               
1 62389U 24247N   26189.59793581  .00001864  00000+0  11661-3 0  9996
2 62389  44.9953 242.6285 0002067 318.2676  41.8043 15.13467379 85426
ICEYE-X42               
1 62698U 25009CT  26189.67016102  .00000977  00000+0  10224-3 0  9990
2 62698  97.7409 267.5954 0002153  58.4776 301.6653 14.91842127 80499
ICEYE-X41               
1 62700U 25009CV  26189.79638589  .00001295  00000+0  11791-3 0  9990
2 62700  97.7066 269.0094 0000843   9.9751 350.1487 14.96893112 80648
ICEYE-X45               
1 62705U 25009DA  26189.79752308  .00003763  00000+0  30097-3 0  9993
2 62705  97.8396 276.6586 0001339  79.6955 280.4419 15.00831357 80921
ICEYE-X44               
1 62707U 25009DC  26189.75547583  .00002064  00000+0  18849-3 0  9992
2 62707  97.7046 268.5409 0002514  83.8125 276.3383 14.96140860103162
ICEYE-X48               
1 63253U 25052AV  26189.69816555  .00001783  00000+0  15556-3 0  9997
2 63253  97.6841  81.5559 0003270 119.7800 240.3748 14.98103104 71891
ICEYE-X50               
1 63255U 25052AX  26189.97281936  .00001460  00000+0  13749-3 0  9993
2 63255  97.6866  81.4477 0003206 115.0311 245.1243 14.95349485 71909
ICEYE-X51               
1 63257U 25052AZ  26189.92527924  .00002536  00000+0  20406-3 0  9993
2 63257  97.7601  84.9802 0002023  68.0786 292.0652 15.00876473 72060
ICEYE-X46               
1 63258U 25052BA  26189.63497034  .00001638  00000+0  15363-3 0  9998
2 63258  97.6866  81.1151 0001586  84.7383 275.4019 14.95348711 71850
ICEYE-X54               
1 64570U 25135AU  26189.91651950  .00002071  00000+0  19616-3 0  9995
2 64570  97.7740 304.1307 0001571 206.6368 153.4772 14.94707536 57143
ICEYE-X52               
1 64572U 25135AW  26189.90985902  .00001164  00000+0  11558-3 0  9992
2 64572  97.7764 303.9221 0000727 220.6617 139.4549 14.93636733 57121
ICEYE-X56               
1 64574U 25135AY  26189.97515877  .00001843  00000+0  17061-3 0  9990
2 64574  97.7754 304.7655 0000991 233.8209 126.2920 14.95738149 57187
ICEYE-X57               
1 64578U 25135BC  26189.93432609  .00002932  00000+0  23541-3 0  9991
2 64578  97.8001 306.4663 0002066  61.9775 298.1658 15.00849144 57281
ICEYE-X55               
1 64581U 25135BF  26189.91404128  .00001832  00000+0  17141-3 0  9995
2 64581  97.7752 304.5344 0001881 269.9167  90.1838 14.95336167 57167
